STARLINK-3343           
1 50822U 22001V   26068.54447942 -.00000477  00000+0 -11880-4 0  9994
2 50822  53.2169 169.7745 0000876 121.0402 239.0677 15.08848779230382
PRSC-S1                 
1 65055U 25164A   26068.60758212  .00007316  00000+0  46631-3 0  9991
2 65055  41.1290 129.3637 0004466 348.3012  11.7698 15.08919510 33403
